KUIPER-00095            
1 65134U 25171C   25267.06252676  .00068830  00000+0  19159-2 0  9992
2 65134  51.8770 194.7568 0003848 320.0579  40.0123 15.36174963  7943
KUIPER-00096            
1 65135U 25171D   25267.18500216  .00079359  00000+0  21809-2 0  9995
2 65135  51.8756 194.0773 0003886 304.6437  55.4183 15.36507268  7968
KUIPER-00097            
1 65136U 25171E   25267.06395017  .00081859  00000+0  22712-2 0  9996
2 65136  51.8772 194.7663 0003400 316.2751  43.7965 15.36195446  7938
KUIPER-00098            
1 65137U 25171F   25267.11090000  .00032004  00000+0  88590-3 0  9992
2 65137  51.8765 194.3377 0004683 270.2894  89.7556 15.36696802  7297
KUIPER-00099            
1 65138U 25171G   25267.11346333  .00071085  00000+0  19447-2 0  9992
2 65138  51.8761 194.3593 0004367 284.2244  75.8257 15.36697217  7944
KUIPER-00100            
1 65139U 25171H   25267.18451401  .00075366  00000+0  20739-2 0  9995
2 65139  51.8762 194.0748 0004417 305.6751  54.3824 15.36488742  7956
KUIPER-00102            
1 65140U 25171J   25267.06339357  .00065803  00000+0  18372-2 0  9994
2 65140  51.8767 194.7593 0003462 316.2787  43.7924 15.36101490  7937
KUIPER-00103            
1 65141U 25171K   25267.33336806 -.00887311  00000+0 -32387-1 0  9990
2 65141  51.8784 193.5781 0004822 300.1216  58.7812 15.30359823  5606
