<?xml version="1.0" encoding="UTF-8"?>
<ndm xmlns:xsi="http://www.w3.org/2001/XMLSchema-instance" xsi:noNamespaceSchemaLocation="https://sanaregistry.org/r/ndmxml_unqualified/ndmxml-2.0.0-master-2.0.xsd">
<omm id="CCSDS_OMM_VERS" version="2.0">
<header><CREATION_DATE/><ORIGINATOR/></header><body><segment><metadata><OBJECT_NAME>KUIPER-00095</OBJECT_NAME><OBJECT_ID>2025-171C</OBJECT_ID><CENTER_NAME>EARTH</CENTER_NAME><REF_FRAME>TEME</REF_FRAME><TIME_SYSTEM>UTC</TIME_SYSTEM><MEAN_ELEMENT_THEORY>SGP4</MEAN_ELEMENT_THEORY></metadata><data><meanElements><EPOCH>2025-09-24T01:30:02.312064</EPOCH><MEAN_MOTION>15.36174963</MEAN_MOTION><ECCENTRICITY>.00038487</ECCENTRICITY><INCLINATION>51.8770</INCLINATION><RA_OF_ASC_NODE>194.7568</RA_OF_ASC_NODE><ARG_OF_PERICENTER>320.0579</ARG_OF_PERICENTER><MEAN_ANOMALY>40.0123</MEAN_ANOMALY></meanElements><tleParameters><EPHEMERIS_TYPE>0</EPHEMERIS_TYPE><CLASSIFICATION_TYPE>U</CLASSIFICATION_TYPE><NORAD_CAT_ID>65134</NORAD_CAT_ID><ELEMENT_SET_NO>999</ELEMENT_SET_NO><REV_AT_EPOCH>794</REV_AT_EPOCH><BSTAR>.1915903E-2</BSTAR><MEAN_MOTION_DOT>.6883E-3</MEAN_MOTION_DOT><MEAN_MOTION_DDOT>0</MEAN_MOTION_DDOT></tleParameters></data></segment></body></omm>
<omm id="CCSDS_OMM_VERS" version="2.0">
<header><CREATION_DATE/><ORIGINATOR/></header><body><segment><metadata><OBJECT_NAME>KUIPER-00096</OBJECT_NAME><OBJECT_ID>2025-171D</OBJECT_ID><CENTER_NAME>EARTH</CENTER_NAME><REF_FRAME>TEME</REF_FRAME><TIME_SYSTEM>UTC</TIME_SYSTEM><MEAN_ELEMENT_THEORY>SGP4</MEAN_ELEMENT_THEORY></metadata><data><meanElements><EPOCH>2025-09-24T04:26:24.186624</EPOCH><MEAN_MOTION>15.36507268</MEAN_MOTION><ECCENTRICITY>.00038865</ECCENTRICITY><INCLINATION>51.8756</INCLINATION><RA_OF_ASC_NODE>194.0773</RA_OF_ASC_NODE><ARG_OF_PERICENTER>304.6437</ARG_OF_PERICENTER><MEAN_ANOMALY>55.4183</MEAN_ANOMALY></meanElements><tleParameters><EPHEMERIS_TYPE>0</EPHEMERIS_TYPE><CLASSIFICATION_TYPE>U</CLASSIFICATION_TYPE><NORAD_CAT_ID>65135</NORAD_CAT_ID><ELEMENT_SET_NO>999</ELEMENT_SET_NO><REV_AT_EPOCH>796</REV_AT_EPOCH><BSTAR>.21808577E-2</BSTAR><MEAN_MOTION_DOT>.79359E-3</MEAN_MOTION_DOT><MEAN_MOTION_DDOT>0</MEAN_MOTION_DDOT></tleParameters></data></segment></body></omm>
<omm id="CCSDS_OMM_VERS" version="2.0">
<header><CREATION_DATE/><ORIGINATOR/></header><body><segment><metadata><OBJECT_NAME>KUIPER-00097</OBJECT_NAME><OBJECT_ID>2025-171E</OBJECT_ID><CENTER_NAME>EARTH</CENTER_NAME><REF_FRAME>TEME</REF_FRAME><TIME_SYSTEM>UTC</TIME_SYSTEM><MEAN_ELEMENT_THEORY>SGP4</MEAN_ELEMENT_THEORY></metadata><data><meanElements><EPOCH>2025-09-24T01:32:05.294688</EPOCH><MEAN_MOTION>15.36195446</MEAN_MOTION><ECCENTRICITY>.00034004</ECCENTRICITY><INCLINATION>51.8772</INCLINATION><RA_OF_ASC_NODE>194.7663</RA_OF_ASC_NODE><ARG_OF_PERICENTER>316.2751</ARG_OF_PERICENTER><MEAN_ANOMALY>43.7965</MEAN_ANOMALY></meanElements><tleParameters><EPHEMERIS_TYPE>0</EPHEMERIS_TYPE><CLASSIFICATION_TYPE>U</CLASSIFICATION_TYPE><NORAD_CAT_ID>65136</NORAD_CAT_ID><ELEMENT_SET_NO>999</ELEMENT_SET_NO><REV_AT_EPOCH>793</REV_AT_EPOCH><BSTAR>.2271226E-2</BSTAR><MEAN_MOTION_DOT>.81859E-3</MEAN_MOTION_DOT><MEAN_MOTION_DDOT>0</MEAN_MOTION_DDOT></tleParameters></data></segment></body></omm>
<omm id="CCSDS_OMM_VERS" version="2.0">
<header><CREATION_DATE/><ORIGINATOR/></header><body><segment><metadata><OBJECT_NAME>KUIPER-00098</OBJECT_NAME><OBJECT_ID>2025-171F</OBJECT_ID><CENTER_NAME>EARTH</CENTER_NAME><REF_FRAME>TEME</REF_FRAME><TIME_SYSTEM>UTC</TIME_SYSTEM><MEAN_ELEMENT_THEORY>SGP4</MEAN_ELEMENT_THEORY></metadata><data><meanElements><EPOCH>2025-09-24T02:39:41.760000</EPOCH><MEAN_MOTION>15.36696802</MEAN_MOTION><ECCENTRICITY>.00046834</ECCENTRICITY><INCLINATION>51.8765</INCLINATION><RA_OF_ASC_NODE>194.3377</RA_OF_ASC_NODE><ARG_OF_PERICENTER>270.2894</ARG_OF_PERICENTER><MEAN_ANOMALY>89.7556</MEAN_ANOMALY></meanElements><tleParameters><EPHEMERIS_TYPE>0</EPHEMERIS_TYPE><CLASSIFICATION_TYPE>U</CLASSIFICATION_TYPE><NORAD_CAT_ID>65137</NORAD_CAT_ID><ELEMENT_SET_NO>999</ELEMENT_SET_NO><REV_AT_EPOCH>729</REV_AT_EPOCH><BSTAR>.88590374E-3</BSTAR><MEAN_MOTION_DOT>.32004E-3</MEAN_MOTION_DOT><MEAN_MOTION_DDOT>0</MEAN_MOTION_DDOT></tleParameters></data></segment></body></omm>
<omm id="CCSDS_OMM_VERS" version="2.0">
<header><CREATION_DATE/><ORIGINATOR/></header><body><segment><metadata><OBJECT_NAME>KUIPER-00099</OBJECT_NAME><OBJECT_ID>2025-171G</OBJECT_ID><CENTER_NAME>EARTH</CENTER_NAME><REF_FRAME>TEME</REF_FRAME><TIME_SYSTEM>UTC</TIME_SYSTEM><MEAN_ELEMENT_THEORY>SGP4</MEAN_ELEMENT_THEORY></metadata><data><meanElements><EPOCH>2025-09-24T02:43:23.231712</EPOCH><MEAN_MOTION>15.36697217</MEAN_MOTION><ECCENTRICITY>.00043678</ECCENTRICITY><INCLINATION>51.8761</INCLINATION><RA_OF_ASC_NODE>194.3593</RA_OF_ASC_NODE><ARG_OF_PERICENTER>284.2244</ARG_OF_PERICENTER><MEAN_ANOMALY>75.8257</MEAN_ANOMALY></meanElements><tleParameters><EPHEMERIS_TYPE>0</EPHEMERIS_TYPE><CLASSIFICATION_TYPE>U</CLASSIFICATION_TYPE><NORAD_CAT_ID>65138</NORAD_CAT_ID><ELEMENT_SET_NO>999</ELEMENT_SET_NO><REV_AT_EPOCH>794</REV_AT_EPOCH><BSTAR>.19446997E-2</BSTAR><MEAN_MOTION_DOT>.71085E-3</MEAN_MOTION_DOT><MEAN_MOTION_DDOT>0</MEAN_MOTION_DDOT></tleParameters></data></segment></body></omm>
<omm id="CCSDS_OMM_VERS" version="2.0">
<header><CREATION_DATE/><ORIGINATOR/></header><body><segment><metadata><OBJECT_NAME>KUIPER-00100</OBJECT_NAME><OBJECT_ID>2025-171H</OBJECT_ID><CENTER_NAME>EARTH</CENTER_NAME><REF_FRAME>TEME</REF_FRAME><TIME_SYSTEM>UTC</TIME_SYSTEM><MEAN_ELEMENT_THEORY>SGP4</MEAN_ELEMENT_THEORY></metadata><data><meanElements><EPOCH>2025-09-24T04:25:42.010464</EPOCH><MEAN_MOTION>15.36488742</MEAN_MOTION><ECCENTRICITY>.0004417</ECCENTRICITY><INCLINATION>51.8762</INCLINATION><RA_OF_ASC_NODE>194.0748</RA_OF_ASC_NODE><ARG_OF_PERICENTER>305.6751</ARG_OF_PERICENTER><MEAN_ANOMALY>54.3824</MEAN_ANOMALY></meanElements><tleParameters><EPHEMERIS_TYPE>0</EPHEMERIS_TYPE><CLASSIFICATION_TYPE>U</CLASSIFICATION_TYPE><NORAD_CAT_ID>65139</NORAD_CAT_ID><ELEMENT_SET_NO>999</ELEMENT_SET_NO><REV_AT_EPOCH>795</REV_AT_EPOCH><BSTAR>.2073876E-2</BSTAR><MEAN_MOTION_DOT>.75366E-3</MEAN_MOTION_DOT><MEAN_MOTION_DDOT>0</MEAN_MOTION_DDOT></tleParameters></data></segment></body></omm>
<omm id="CCSDS_OMM_VERS" version="2.0">
<header><CREATION_DATE/><ORIGINATOR/></header><body><segment><metadata><OBJECT_NAME>KUIPER-00102</OBJECT_NAME><OBJECT_ID>2025-171J</OBJECT_ID><CENTER_NAME>EARTH</CENTER_NAME><REF_FRAME>TEME</REF_FRAME><TIME_SYSTEM>UTC</TIME_SYSTEM><MEAN_ELEMENT_THEORY>SGP4</MEAN_ELEMENT_THEORY></metadata><data><meanElements><EPOCH>2025-09-24T01:31:17.204448</EPOCH><MEAN_MOTION>15.36101490</MEAN_MOTION><ECCENTRICITY>.00034628</ECCENTRICITY><INCLINATION>51.8767</INCLINATION><RA_OF_ASC_NODE>194.7593</RA_OF_ASC_NODE><ARG_OF_PERICENTER>316.2787</ARG_OF_PERICENTER><MEAN_ANOMALY>43.7924</MEAN_ANOMALY></meanElements><tleParameters><EPHEMERIS_TYPE>0</EPHEMERIS_TYPE><CLASSIFICATION_TYPE>U</CLASSIFICATION_TYPE><NORAD_CAT_ID>65140</NORAD_CAT_ID><ELEMENT_SET_NO>999</ELEMENT_SET_NO><REV_AT_EPOCH>793</REV_AT_EPOCH><BSTAR>.18372221E-2</BSTAR><MEAN_MOTION_DOT>.65803E-3</MEAN_MOTION_DOT><MEAN_MOTION_DDOT>0</MEAN_MOTION_DDOT></tleParameters></data></segment></body></omm>
<omm id="CCSDS_OMM_VERS" version="2.0">
<header><CREATION_DATE/><ORIGINATOR/></header><body><segment><metadata><OBJECT_NAME>KUIPER-00103</OBJECT_NAME><OBJECT_ID>2025-171K</OBJECT_ID><CENTER_NAME>EARTH</CENTER_NAME><REF_FRAME>TEME</REF_FRAME><TIME_SYSTEM>UTC</TIME_SYSTEM><MEAN_ELEMENT_THEORY>SGP4</MEAN_ELEMENT_THEORY></metadata><data><meanElements><EPOCH>2025-09-24T08:00:03.000384</EPOCH><MEAN_MOTION>15.30359823</MEAN_MOTION><ECCENTRICITY>.00048226</ECCENTRICITY><INCLINATION>51.8784</INCLINATION><RA_OF_ASC_NODE>193.5781</RA_OF_ASC_NODE><ARG_OF_PERICENTER>300.1216</ARG_OF_PERICENTER><MEAN_ANOMALY>58.7812</MEAN_ANOMALY></meanElements><tleParameters><EPHEMERIS_TYPE>0</EPHEMERIS_TYPE><CLASSIFICATION_TYPE>U</CLASSIFICATION_TYPE><NORAD_CAT_ID>65141</NORAD_CAT_ID><ELEMENT_SET_NO>999</ELEMENT_SET_NO><REV_AT_EPOCH>560</REV_AT_EPOCH><BSTAR>-.32387253E-1</BSTAR><MEAN_MOTION_DOT>-.887311E-2</MEAN_MOTION_DOT><MEAN_MOTION_DDOT>0</MEAN_MOTION_DDOT></tleParameters></data></segment></body></omm>

</ndm>
